PHISAT 2                
1 60470U 24149C   26068.78834181  .00008925  00000+0  31421-3 0  9996
2 60470  97.3806 148.6498 0001175 168.6230 191.5037 15.29548631 86792
STARLINK-34290          
1 64929U 25157AB  26068.17163370  .00040982  00000+0  13875-2 0  9998
2 64929  53.1609 348.1326 0000894 117.6872 242.4220 15.30217310 36048
